#aV2022  9 21  0  0  0.00000000     288 DD+AD WGS84 FIT  NGA
## 2228 259200.00000000   300.00000000 59843 0.0000000000000
+   32     1  2  3  4  5  6  7  8  9 10 11 12 13 14 15 16 17
+         18 19 20 21 22 23 24 25 26 27 28 29 30 31 32  0  0
+          0  0  0  0  0  0  0  0  0  0  0  0  0  0  0  0  0
+          0  0  0  0  0  0  0  0  0  0  0  0  0  0  0  0  0
+          0  0  0  0  0  0  0  0  0  0  0  0  0  0  0  0  0
++         2  2  2  2  2  2  2  2  2  2  2  2  2  2  2  2  2
++         2  2  2  2  2  2  2  2  2  2  2  2  2  2  2  0  0
++         0  0  0  0  0  0  0  0  0  0  0  0  0  0  0  0  0
++         0  0  0  0  0  0  0  0  0  0  0  0  0  0  0  0  0
++         0  0  0  0  0  0  0  0  0  0  0  0  0  0  0  0  0
%c cc cc ccc ccc cccc cccc cccc cccc ccccc ccccc ccccc ccccc
%c cc cc ccc ccc cccc cccc cccc cccc ccccc ccccc ccccc ccccc
%f  0.0000000  0.000000000  0.00000000000  0.000000000000000
%f  0.0000000  0.000000000  0.00000000000  0.000000000000000
%i    0    0    0    0      0      0      0      0         0
%i    0    0    0    0      0      0      0      0         0
/*      NGA, ST. LOUIS,MO.                                  
/*   EPHEMERIS COMPUTED FROM 2 DAYS OF DATA                 
/*   EPOCHA v8 SMOOTHER                                     
/*   G2139 IERS2010 SATIGS SATAPC                           
*  2022  9 21 14 40  0.00000000
P  1   1815.336788  14733.136877 -22313.533674    280.128641                    
V  1 -26614.400117   7044.183061   2848.942941     -0.064535                    
P  2   5830.805835 -17108.099318  20172.609404   -645.256975                    
V  2  22878.851463  -7750.261585 -13455.185939      0.013386                    
P  3   8408.334778  21128.436848 -13935.963717   -354.491597                    
V  3 -13772.833348 -10796.778216 -24800.048290     -0.057527                    
P  4    108.655808  24660.100212   9741.049102   -115.395494                    
V  4  -5826.259155  11235.415434 -28480.698157      0.057006                    
P  5   2508.381857 -16652.484075  20331.035794    -97.503535                    
V  5  20423.020030  16516.124029  11040.124911     -0.014365                    
P  6  25713.020277  -6760.885329   -827.075563    468.053100                    
V  6   -562.393786   2122.794344 -32275.060757      0.121511                    
P  7  17851.529983   8514.739440  18370.567165    305.725244                    
V  7 -21104.106816   7434.262448  16976.833823     -0.032156                    
P  8  -5525.609756  25776.237468   -223.628807    -85.568294                    
V  8  -3067.697846   -431.459822  32021.022502     -0.015931                    
P  9   9139.207064  17241.343923  17924.799217   -293.257815                    
V  9  -6686.204896  22017.310328 -17730.834944      0.048373                    
P 10 -21676.999661  -8628.346740 -12827.870711     -4.254025                    
V 10 -10660.592062 -12572.171893  25864.980836     -0.016571                    
P 11  21409.296749 -12127.133211   9955.079479    -18.291071                    
V 11  12873.524014   -507.191329 -28336.682682     -0.031920                    
P 12  -6174.902814 -21640.037584 -14455.376843   -281.869811                    
V 12  13332.119367  12000.095848 -24003.106305     -0.060251                    
P 13  13224.361148 -22040.327709   6126.666145    391.766833                    
V 13   -506.509536   8434.433109  30778.093624      0.072033                    
P 14  21600.947085  10471.610075 -11478.440245   -101.874946                    
V 14   8304.795426  12242.895727  26668.283656      0.029397                    
P 15   2239.676260 -26297.497393   -818.919050    -27.180315                    
V 15   4045.998205   -104.820753  31253.854477      0.031045                    
P 16  -9981.658256  11212.548914  21611.466035   -524.698296                    
V 16 -18800.526651 -20905.988350   2581.100996     -0.009691                    
P 17  14482.420444   2639.861359 -21672.904410    661.365835                    
V 17  -8350.945045  27276.612586  -2155.820073      0.037990                    
P 18 -18478.956702  -7439.592643  17630.292690     41.002016                    
V 18  21177.016517  -7172.332985  19028.539867     -0.129005                    
P 19  16685.151471  -7972.566383 -19208.638073    213.674591                    
V 19  -6986.920701  22918.366269 -16023.743644      0.050453                    
P 20  14800.048633  -7875.194120  20559.770075    484.601767                    
V 20  20974.997132  15739.127628  -9300.285988     -0.031224                    
P 21  -7445.732457  16641.001949 -18426.533759    159.156944                    
V 21 -24005.046541   7087.504917  16306.307404     -0.005202                    
P 22 -16346.264413  11409.875009 -17046.396730    331.862522                    
V 22   5323.274330 -21975.365515 -19513.846770      0.068270                    
P 23 -21127.261028 -15819.334894  -3547.535397     -0.273243                    
V 23  -1713.481130  -4770.650504  31452.696037     -0.004800                    
P 24   1744.317853 -16963.279586 -20592.533159    127.733472                    
V 24  24366.429420  -8040.474600   9246.984147     -0.133865                    
P 25 -16618.575714 -20392.506898  -4894.696769    374.406441                    
V 25   6056.472240   2044.262610 -30646.177680      0.040267                    
P 26 -17457.765632   4112.773789  19595.542762    229.458956                    
V 26 -18275.176697 -17209.678657 -12293.741453      0.015763                    
P 27 -12546.729560  20425.669201  10777.711061    208.933521                    
V 27    883.885129 -14328.856771  28016.861717     -0.046060                    
P 28  18845.387692   2885.607124 -17882.985991    336.679480                    
V 28  14282.984065  19135.594028  17880.872663     -0.028687                    
P 29  -6575.815314 -18451.495677  17852.567120   -553.432987                    
V 29   8353.929651 -21198.171934 -18864.858681     -0.032338                    
P 30  24822.639395    670.299215   9863.191797   -537.079341                    
V 30 -11114.932077   6165.110816  27559.415112     -0.001969                    
P 31 -25909.084439   6906.335378     -9.102359   -194.144865                    
V 31   -825.177145  -2479.265817 -31325.305544     -0.013481                    
P 32 -15582.855532    893.427592 -21319.065976   -239.968570                    
V 32   5734.497035 -26854.185738  -5470.690700     -0.114501                    
EOF
